{
  "type": "FeatureCollection",
  "features": [
    {
      "type": "Feature",
      "properties": {
        "norad_id": 50032,
        "name": "COSMOS 1408 DEB",
        "group": "cosmos-1408-debris",
        "lat": 36.92929008543367,
        "lon": 48.697914345693945,
        "alt_km": 431.36530252184457,
        "timestamp": "2025-12-27T19:21:59.021023+00:00",
        "meta_object_name": "COSMOS 1408 DEB",
        "meta_object_id": "1982-092RU",
        "meta_epoch": "2025-12-27T09:53:01.667904",
        "meta_mean_motion": 15.45840268,
        "meta_eccentricity": 0.0016738,
        "meta_inclination": 82.5633,
        "meta_ra_of_asc_node": 43.4687,
        "meta_arg_of_pericenter": 154.9521,
        "meta_mean_anomaly": 205.2544,
        "meta_ephemeris_type": 0,
        "meta_classification_type": "U",
        "meta_norad_cat_id": 50032,
        "meta_element_set_no": 999,
        "meta_rev_at_epoch": 22830,
        "meta_bstar": 0.00011002,
        "meta_mean_motion_dot": 5.405e-05,
        "meta_mean_motion_ddot": 0,
        "tle_line1": "1 50032U 82092RU  25361.41182486  .00005405  00000+0  11002-3 0  9992",
        "tle_line2": "2 50032  82.5633  43.4687 0016738 154.9521 205.2544 15.45840268228303"
      },
      "geometry": {
        "type": "Point",
        "coordinates": [
          48.697914345693945,
          36.92929008543367
        ]
      }
    },
    {
      "type": "Feature",
      "properties": {
        "norad_id": 50058,
        "name": "COSMOS 1408 DEB",
        "group": "cosmos-1408-debris",
        "lat": 3.106360712342572,
        "lon": -126.84282446333272,
        "alt_km": 382.65528720113525,
        "timestamp": "2025-12-27T19:21:59.021041+00:00",
        "meta_object_name": "COSMOS 1408 DEB",
        "meta_object_id": "1982-092SW",
        "meta_epoch": "2025-12-27T04:48:13.277088",
        "meta_mean_motion": 15.64988053,
        "meta_eccentricity": 0.0015736,
        "meta_inclination": 82.6117,
        "meta_ra_of_asc_node": 54.1967,
        "meta_arg_of_pericenter": 49.4559,
        "meta_mean_anomaly": 310.8068,
        "meta_ephemeris_type": 0,
        "meta_classification_type": "U",
        "meta_norad_cat_id": 50058,
        "meta_element_set_no": 999,
        "meta_rev_at_epoch": 23030,
        "meta_bstar": 0.00033202,
        "meta_mean_motion_dot": 0.0003285,
        "meta_mean_motion_ddot": 0,
        "tle_line1": "1 50058U 82092SW  25361.20015367  .00032850  00000+0  33202-3 0  9990",
        "tle_line2": "2 50058  82.6117  54.1967 0015736  49.4559 310.8068 15.64988053230308"
      },
      "geometry": {
        "type": "Point",
        "coordinates": [
          -126.84282446333272,
          3.106360712342572
        ]
      }
    },
    {
      "type": "Feature",
      "properties": {
        "norad_id": 50404,
        "name": "COSMOS 1408 DEB",
        "group": "cosmos-1408-debris",
        "lat": 57.866678827886226,
        "lon": 6.977180373568184,
        "alt_km": 408.43158006654903,
        "timestamp": "2025-12-27T19:21:59.021052+00:00",
        "meta_object_name": "COSMOS 1408 DEB",
        "meta_object_id": "1982-092ADS",
        "meta_epoch": "2025-12-27T12:29:57.767136",
        "meta_mean_motion": 15.16271554,
        "meta_eccentricity": 0.0165312,
        "meta_inclination": 82.2019,
        "meta_ra_of_asc_node": 199.8738,
        "meta_arg_of_pericenter": 147.9377,
        "meta_mean_anomaly": 213.2044,
        "meta_ephemeris_type": 0,
        "meta_classification_type": "U",
        "meta_norad_cat_id": 50404,
        "meta_element_set_no": 999,
        "meta_rev_at_epoch": 21417,
        "meta_bstar": 0.0036259,
        "meta_mean_motion_dot": 0.00100867,
        "meta_mean_motion_ddot": 0,
        "tle_line1": "1 50404U 82092ADS 25361.52080749  .00100867  00000+0  36259-2 0  9994",
        "tle_line2": "2 50404  82.2019 199.8738 0165312 147.9377 213.2044 15.16271554214176"
      },
      "geometry": {
        "type": "Point",
        "coordinates": [
          6.977180373568184,
          57.866678827886226
        ]
      }
    },
    {
      "type": "Feature",
      "properties": {
        "norad_id": 50621,
        "name": "COSMOS 1408 DEB",
        "group": "cosmos-1408-debris",
        "lat": 33.00260047575623,
        "lon": -126.3769859733902,
        "alt_km": 379.9084748549558,
        "timestamp": "2025-12-27T19:21:59.021072+00:00",
        "meta_object_name": "COSMOS 1408 DEB",
        "meta_object_id": "1982-092ALR",
        "meta_epoch": "2025-12-27T04:51:48.023424",
        "meta_mean_motion": 15.57410266,
        "meta_eccentricity": 0.0029131,
        "meta_inclination": 82.5697,
        "meta_ra_of_asc_node": 59.1152,
        "meta_arg_of_pericenter": 100.9036,
        "meta_mean_anomaly": 259.5499,
        "meta_ephemeris_type": 0,
        "meta_classification_type": "U",
        "meta_norad_cat_id": 50621,
        "meta_element_set_no": 999,
        "meta_rev_at_epoch": 22475,
        "meta_bstar": 0.00036183,
        "meta_mean_motion_dot": 0.00027119,
        "meta_mean_motion_ddot": 0,
        "tle_line1": "1 50621U 82092ALR 25361.20263916  .00027119  00000+0  36183-3 0  9994",
        "tle_line2": "2 50621  82.5697  59.1152 0029131 100.9036 259.5499 15.57410266224751"
      },
      "geometry": {
        "type": "Point",
        "coordinates": [
          -126.3769859733902,
          33.00260047575623
        ]
      }
    }
  ]
}